NUSAT-1 (FRESCO)        
1 41557U 16033B   22042.27011259  .00008704  00000+0  28792-3 0  9991
2 41557  97.3880 140.1150 0013546 104.9186 340.1359 15.31493366318052
BEESAT-4                
1 41619U 16040W   22042.08992047  .00013364  00000+0  49599-3 0  9996
2 41619  97.2383  96.3019 0009582 197.5548 162.5362 15.27657297301411
CAS-2T & KS-1Q          
1 41847U 16066G   22042.16425285  .00000885  00000+0  14389-3 0  9994
2 41847  98.5692 106.8917 0363963 227.3690 129.6281 14.38358660276194
NAYIF-1 (EO-88)         
1 42017U 17008BX  22041.75889962  .00011701  00000+0  39759-3 0  9998
2 42017  97.2876 110.0054 0005207 357.3599   2.7614 15.30612366277673
ZHUHAI-1 02 (CAS-4B)    
1 42759U 17034B   22042.16066409  .00003175  00000+0  20040-3 0  9998
2 42759  43.0191 308.2466 0008711 223.7310 287.6897 15.10877736257243
ZHUHAI-1 01 (CAS-4A)    
1 42761U 17034D   22042.20112851  .00003161  00000+0  19910-3 0  9998
2 42761  43.0190 306.9040 0008930 226.7667 269.2955 15.10964227257253
MAX VALIER SAT          
1 42778U 17036P   22041.62434166  .00005685  00000+0  23068-3 0  9991
2 42778  97.2259  87.1517 0012823  60.4098 299.8416 15.24916112257562
RADFXSAT (FOX-1B)       
1 43017U 17073E   22041.67774058  .00003286  00000+0  25582-3 0  9999
2 43017  97.6897 301.0425 0250816 242.4656 115.0870 14.80357071228357
FOX-1D (AO-92)          
1 43137U 18004AC  22041.70847842  .00007699  00000+0  29405-3 0  9993
2 43137  97.3827 118.1867 0009843  91.0363 269.2004 15.26868356226995
DIWATA-2B               
1 43678U 18084H   22042.23570122  .00000325  00000+0  37922-4 0  9997
2 43678  97.9492 174.2104 0009721 351.2767   8.8296 14.91910487179036
ES'HAIL 2               
1 43700U 18090A   22041.99631108  .00000148  00000+0  00000+0 0  9999
2 43700   0.0092 125.1344 0002285 216.5250 183.8317  1.00270824 12003
FOX-1CLIFF (AO-95)      
1 43770U 18099N   22041.84675104  .00001888  00000+0  17422-3 0  9995
2 43770  97.6374 111.4540 0013919 345.3366  14.7450 14.95758056174089
ITASAT 1                
1 43786U 18099AE  22041.72279387  .00001687  00000+0  15530-3 0  9997
2 43786  97.6397 112.1750 0014343 338.1621  21.8988 14.95992494174102
JY1SAT (JO-97)          
1 43803U 18099AX  22041.90913711  .00001919  00000+0  17439-3 0  9991
2 43803  97.6359 112.0942 0014373 336.8001  23.2570 14.96335428174148
UWE-4                   
1 43880U 18111E   22041.99843288  .00002680  00000+0  23532-3 0  9998
2 43880  97.6763 310.5337 0012684  29.6050 330.5888 14.97370787168775
NEXUS (FO-99)           
1 43937U 19003F   22042.06229807  .00011434  00000+0  42289-3 0  9993
2 43937  97.1492  80.5033 0020443 242.8711 117.0444 15.27652788170669
PSAT2 (NO-104)          
1 44354U 19036R   22042.09083673  .00070618  00000+0  81198-3 0  9996
2 44354  28.5278 324.3949 0282475   2.3517 357.8350 15.25041691145278
BRICSAT2 (NO-103)       
1 44355U 19036S   22041.78163065  .00199296  38378-5  12042-2 0  9996
2 44355  28.5204 225.4492 0153786 162.7108 197.8807 15.61422149146249
JAISAT-1                
1 44419U 19038F   22042.18447978  .00008431  00000+0  45116-3 0  9996
2 44419  97.6209  11.6325 0019536 203.9468 156.0857 15.15139547143923
DUCHIFAT-3              
1 44854U 19089C   22041.61244821  .00003256  00000+0  26217-3 0  9995
2 44854  36.9652 131.7101 0008751 276.2964  83.6732 15.00110089118878
CAS-6 (TO-108)          
1 44881U 19093C   22042.22261249  .00000452  00000+0  64298-4 0  9998
2 44881  97.9038 123.2081 0013752 234.1804 125.8134 14.81563803116089
RS-44 & BREEZE-KM R/B   
1 44909U 19096E   22041.84813442  .00000005  00000+0 -17709-4 0  9997
2 44909  82.5234 314.4073 0216343 255.7395 101.9593 12.79711933 99312
ORBITAL FACTORY 2 (OF-2)
1 45113U 19071C   22041.81117341  .00017634  00000+0  45265-3 0  9992
2 45113  51.6416 319.4164 0011465  80.2809 279.9470 15.39338000113837
HUSKYSAT-1 (HO-107)     
1 45119U 19071J   22041.18622707  .00015867  00000+0  41245-3 0  9995
2 45119  51.6409 321.9784 0010894  74.8227 285.3961 15.39042454113739
BY70-2                  
1 45857U 20042B   22042.17298895  .00005125  00000+0  71480-3 0  9991
2 45857  97.9652 120.3588 0011536 159.1282 201.0322 14.78098927 86795
SALSAT                  
1 46495U 20068K   22041.83548278  .00002303  00000+0  17134-3 0  9994
2 46495  97.7189 343.2621 0016452 351.4939   8.6005 15.03874822 75151
BY70-3                  
1 46839U 20079N   22042.18637118  .00013326  00000+0  37223-3 0  9997
2 46839  97.2149 116.3637 0007992  72.8413  11.5252 15.36795557 70829
RADFXSAT-2 (AO-109)     
1 47311U 21002C   22041.79189729  .00006422  00000+0  27947-3 0  9997
2 47311  60.6868 118.2097 0022925 173.5549 186.5838 15.23128288 59153
UVSQ-SAT                
1 47438U 21006AB  22041.71881024  .00005117  00000+0  28397-3 0  9990
2 47438  97.4566 103.3675 0012308   1.9758 358.1520 15.14122556 58092
DIY-1 (ARDUIQUBE)       
1 47963U 21022AH  22042.15512491  .00014406  00000+0  89733-3 0  9991
2 47963  97.5434 305.3036 0017444 203.5010 156.5424 15.09551975 47874
XW-3 (CAS-9)            
1 50466U 21131B   22042.13222000  .00000105  00000+0  49064-4 0  9991
2 50466  98.5919 119.3989 0005279 152.1154 208.0318 14.38441302  6756
